{"type": "FeatureCollection", "features": [ {"type": "Feature", "properties": {"norad_id": 34001, "name": "COSMOS 2251 DEB", "group": "cosmos-2251-debris", "lat": -60.46963205244578, "lon": 110.7812942688365, "alt_km": 775.9227763444751, "timestamp": "2025-12-24T05:51:20.002785+00:00", "meta": {"OBJECT_NAME": "COSMOS 2251 DEB", "OBJECT_ID": "1993-036GL", "EPOCH": "2025-12-23T10:52:41.174112", "MEAN_MOTION": 14.37110335, "ECCENTRICITY": 0.00204063, "INCLINATION": 74.0387, "RA_OF_ASC_NODE": 261.888, "ARG_OF_PERICENTER": 340.7368, "MEAN_ANOMALY": 135.0121, "EPHEMERIS_TYPE": 0, "CLASSIFICATION_TYPE": "U", "NORAD_CAT_ID": 34001, "ELEMENT_SET_NO": 999, "REV_AT_EPOCH": 88300, "BSTAR": 0.00016628608, "MEAN_MOTION_DOT": 4.69e-06, "MEAN_MOTION_DDOT": 0}, "tle": {"line1": "1 34001U 93036GL  25357.45325433  .00000469  00000+0  16629-3 0  9995", "line2": "2 34001  74.0387 261.8880 0020406 340.7368 135.0121 14.37110335883005"}}, "geometry": {"type": "Point", "coordinates": [110.7812942688365, -60.46963205244578]}}, {"type": "Feature", "properties": {"norad_id": 34003, "name": "COSMOS 2251 DEB", "group": "cosmos-2251-debris", "lat": 67.85609831213937, "lon": 41.23816538647935, "alt_km": 937.749078922352, "timestamp": "2025-12-24T05:51:20.002795+00:00", "meta": {"OBJECT_NAME": "COSMOS 2251 DEB", "OBJECT_ID": "1993-036GN", "EPOCH": "2025-12-23T10:17:14.601408", "MEAN_MOTION": 13.84206972, "ECCENTRICITY": 0.02752572, "INCLINATION": 74.0777, "RA_OF_ASC_NODE": 267.1533, "ARG_OF_PERICENTER": 16.7588, "MEAN_ANOMALY": 344.2408, "EPHEMERIS_TYPE": 0, "CLASSIFICATION_TYPE": "U", "NORAD_CAT_ID": 34003, "ELEMENT_SET_NO": 999, "REV_AT_EPOCH": 84573, "BSTAR": 0.0017940126, "MEAN_MOTION_DOT": 2.661e-05, "MEAN_MOTION_DDOT": 0}, "tle": {"line1": "1 34003U 93036GN  25357.42864122  .00002661  00000+0  17940-2 0  9999", "line2": "2 34003  74.0777 267.1533 0275257  16.7588 344.2408 13.84206972845738"}}, "geometry": {"type": "Point", "coordinates": [41.23816538647935, 67.85609831213937]}}, {"type": "Feature", "properties": {"norad_id": 34004, "name": "COSMOS 2251 DEB", "group": "cosmos-2251-debris", "lat": -73.38968466620979, "lon": -174.80867087643773, "alt_km": 716.4735725829332, "timestamp": "2025-12-24T05:51:20.002805+00:00", "meta": {"OBJECT_NAME": "COSMOS 2251 DEB", "OBJECT_ID": "1993-036GP", "EPOCH": "2025-12-23T05:26:09.671712", "MEAN_MOTION": 14.49098754, "ECCENTRICITY": 0.00334544, "INCLINATION": 74.0361, "RA_OF_ASC_NODE": 293.4447, "ARG_OF_PERICENTER": 304.4211, "MEAN_ANOMALY": 55.3787, "EPHEMERIS_TYPE": 0, "CLASSIFICATION_TYPE": "U", "NORAD_CAT_ID": 34004, "ELEMENT_SET_NO": 999, "REV_AT_EPOCH": 88182, "BSTAR": 0.0012360348, "MEAN_MOTION_DOT": 4.706e-05, "MEAN_MOTION_DDOT": 0}, "tle": {"line1": "1 34004U 93036GP  25357.22650083  .00004706  00000+0  12360-2 0  9990", "line2": "2 34004  74.0361 293.4447 0033454 304.4211  55.3787 14.49098754881824"}}, "geometry": {"type": "Point", "coordinates": [-174.80867087643773, -73.38968466620979]}}, {"type": "Feature", "properties": {"norad_id": 34005, "name": "COSMOS 2251 DEB", "group": "cosmos-2251-debris", "lat": 2.824754633825414, "lon": 11.583521684163236, "alt_km": 769.7483500832559, "timestamp": "2025-12-24T05:51:20.002815+00:00", "meta": {"OBJECT_NAME": "COSMOS 2251 DEB", "OBJECT_ID": "1993-036GQ", "EPOCH": "2025-12-23T22:54:00.655200", "MEAN_MOTION": 14.40311889, "ECCENTRICITY": 0.0021187, "INCLINATION": 74.0434, "RA_OF_ASC_NODE": 192.9277, "ARG_OF_PERICENTER": 309.2504, "MEAN_ANOMALY": 165.7989, "EPHEMERIS_TYPE": 0, "CLASSIFICATION_TYPE": "U", "NORAD_CAT_ID": 34005, "ELEMENT_SET_NO": 999, "REV_AT_EPOCH": 88540, "BSTAR": 9.8057962e-05, "MEAN_MOTION_DOT": 2.85e-06, "MEAN_MOTION_DDOT": 0}, "tle": {"line1": "1 34005U 93036GQ  25357.95417425  .00000285  00000+0  98058-4 0  9990", "line2": "2 34005  74.0434 192.9277 0021187 309.2504 165.7989 14.40311889885404"}}, "geometry": {"type": "Point", "coordinates": [11.583521684163236, 2.824754633825414]}}, {"type": "Feature", "properties": {"norad_id": 34006, "name": "COSMOS 2251 DEB", "group": "cosmos-2251-debris", "lat": -10.524353887689681, "lon": -56.84824087434984, "alt_km": 590.7199016147306, "timestamp": "2025-12-24T05:51:20.002825+00:00", "meta": {"OBJECT_NAME": "COSMOS 2251 DEB", "OBJECT_ID": "1993-036GR", "EPOCH": "2025-12-23T09:59:27.714336", "MEAN_MOTION": 14.95449075, "ECCENTRICITY": 0.00116268, "INCLINATION": 74.0535, "RA_OF_ASC_NODE": 121.7746, "ARG_OF_PERICENTER": 54.9449, "MEAN_ANOMALY": 1.6406, "EPHEMERIS_TYPE": 0, "CLASSIFICATION_TYPE": "U", "NORAD_CAT_ID": 34006, "ELEMENT_SET_NO": 999, "REV_AT_EPOCH": 88828, "BSTAR": 0.0034401278, "MEAN_MOTION_DOT": 0.00038281, "MEAN_MOTION_DDOT": 0}, "tle": {"line1": "1 34006U 93036GR  25357.41629299  .00038281  00000+0  34401-2 0  9993", "line2": "2 34006  74.0535 121.7746 0011626  54.9449   1.6406 14.95449075888287"}}, "geometry": {"type": "Point", "coordinates": [-56.84824087434984, -10.524353887689681]}}, {"type": "Feature", "properties": {"norad_id": 34007, "name": "COSMOS 2251 DEB", "group": "cosmos-2251-debris", "lat": -43.83097193924492, "lon": -51.218458165346185, "alt_km": 708.401250265234, "timestamp": "2025-12-24T05:51:20.002835+00:00", "meta": {"OBJECT_NAME": "COSMOS 2251 DEB", "OBJECT_ID": "1993-036GS", "EPOCH": "2025-12-23T07:07:10.462368", "MEAN_MOTION": 14.64855781, "ECCENTRICITY": 0.00442476, "INCLINATION": 74.0195, "RA_OF_ASC_NODE": 326.5727, "ARG_OF_PERICENTER": 98.0638, "MEAN_ANOMALY": 262.5554, "EPHEMERIS_TYPE": 0, "CLASSIFICATION_TYPE": "U", "NORAD_CAT_ID": 34007, "ELEMENT_SET_NO": 999, "REV_AT_EPOCH": 89234, "BSTAR": 0.00071307261, "MEAN_MOTION_DOT": 3.835e-05, "MEAN_MOTION_DDOT": 0}, "tle": {"line1": "1 34007U 93036GS  25357.29664887  .00003835  00000+0  71307-3 0  9996", "line2": "2 34007  74.0195 326.5727 0044247  98.0638 262.5554 14.64855781892343"}}, "geometry": {"type": "Point", "coordinates": [-51.218458165346185, -43.83097193924492]}}, {"type": "Feature", "properties": {"norad_id": 34008, "name": "COSMOS 2251 DEB", "group": "cosmos-2251-debris", "lat": 30.85552660609266, "lon": 119.6461920544012, "alt_km": 795.1619457656807, "timestamp": "2025-12-24T05:51:20.002845+00:00", "meta": {"OBJECT_NAME": "COSMOS 2251 DEB", "OBJECT_ID": "1993-036GT", "EPOCH": "2025-12-23T08:05:52.291392", "MEAN_MOTION": 14.33153266, "ECCENTRICITY": 0.00246222, "INCLINATION": 74.0348, "RA_OF_ASC_NODE": 311.1499, "ARG_OF_PERICENTER": 304.6922, "MEAN_ANOMALY": 207.6514, "EPHEMERIS_TYPE": 0, "CLASSIFICATION_TYPE": "U", "NORAD_CAT_ID": 34008, "ELEMENT_SET_NO": 999, "REV_AT_EPOCH": 88116, "BSTAR": 0.00011701765, "MEAN_MOTION_DOT": 2.96e-06, "MEAN_MOTION_DDOT": 0}, "tle": {"line1": "1 34008U 93036GT  25357.33741078  .00000296  00000+0  11702-3 0  9991", "line2": "2 34008  74.0348 311.1499 0024622 304.6922 207.6514 14.33153266881166"}}, "geometry": {"type": "Point", "coordinates": [119.6461920544012, 30.85552660609266]}}, {"type": "Feature", "properties": {"norad_id": 34009, "name": "COSMOS 2251 DEB", "group": "cosmos-2251-debris", "lat": -6.821863789694145, "lon": 137.87540339122722, "alt_km": 802.9893940416268, "timestamp": "2025-12-24T05:51:20.002855+00:00", "meta": {"OBJECT_NAME": "COSMOS 2251 DEB", "OBJECT_ID": "1993-036GU", "EPOCH": "2025-12-23T06:02:52.270368", "MEAN_MOTION": 14.33230292, "ECCENTRICITY": 0.0026912, "INCLINATION": 74.0376, "RA_OF_ASC_NODE": 317.7252, "ARG_OF_PERICENTER": 24.311, "MEAN_ANOMALY": 86.3529, "EPHEMERIS_TYPE": 0, "CLASSIFICATION_TYPE": "U", "NORAD_CAT_ID": 34009, "ELEMENT_SET_NO": 999, "REV_AT_EPOCH": 88096, "BSTAR": 0.0001401011, "MEAN_MOTION_DOT": 3.61e-06, "MEAN_MOTION_DDOT": 0}, "tle": {"line1": "1 34009U 93036GU  25357.25199387  .00000361  00000+0  14010-3 0  9991", "line2": "2 34009  74.0376 317.7252 0026912  24.3110  86.3529 14.33230292880966"}}, "geometry": {"type": "Point", "coordinates": [137.87540339122722, -6.821863789694145]}}, {"type": "Feature", "properties": {"norad_id": 34010, "name": "COSMOS 2251 DEB", "group": "cosmos-2251-debris", "lat": 32.58110883085198, "lon": -90.27777175510678, "alt_km": 498.9876907514108, "timestamp": "2025-12-24T05:51:20.002865+00:00", "meta": {"OBJECT_NAME": "COSMOS 2251 DEB", "OBJECT_ID": "1993-036GV", "EPOCH": "2025-12-23T10:45:24.813504", "MEAN_MOTION": 15.20424475, "ECCENTRICITY": 0.00045593, "INCLINATION": 73.9976, "RA_OF_ASC_NODE": 260.8265, "ARG_OF_PERICENTER": 58.0003, "MEAN_ANOMALY": 302.1637, "EPHEMERIS_TYPE": 0, "CLASSIFICATION_TYPE": "U", "NORAD_CAT_ID": 34010, "ELEMENT_SET_NO": 999, "REV_AT_EPOCH": 89448, "BSTAR": 0.0038976407, "MEAN_MOTION_DOT": 0.00086025, "MEAN_MOTION_DDOT": 0}, "tle": {"line1": "1 34010U 93036GV  25357.44820386  .00086025  00000+0  38976-2 0  9991", "line2": "2 34010  73.9976 260.8265 0004559  58.0003 302.1637 15.20424475894488"}}, "geometry": {"type": "Point", "coordinates": [-90.27777175510678, 32.58110883085198]}}, {"type": "Feature", "properties": {"norad_id": 34011, "name": "COSMOS 2251 DEB", "group": "cosmos-2251-debris", "lat": -6.797619975450915, "lon": 130.76031364493966, "alt_km": 779.7487394782765, "timestamp": "2025-12-24T05:51:20.002875+00:00", "meta": {"OBJECT_NAME": "COSMOS 2251 DEB", "OBJECT_ID": "1993-036GW", "EPOCH": "2025-12-21T22:02:24.533664", "MEAN_MOTION": 14.41810013, "ECCENTRICITY": 0.00360808, "INCLINATION": 74.015, "RA_OF_ASC_NODE": 313.1159, "ARG_OF_PERICENTER": 34.0795, "MEAN_ANOMALY": 326.2666, "EPHEMERIS_TYPE": 0, "CLASSIFICATION_TYPE": "U", "NORAD_CAT_ID": 34011, "ELEMENT_SET_NO": 999, "REV_AT_EPOCH": 88048, "BSTAR": 0.00069958791, "MEAN_MOTION_DOT": 2.278e-05, "MEAN_MOTION_DDOT": 0}, "tle": {"line1": "1 34011U 93036GW  25355.91833951  .00002278  00000+0  69959-3 0  9998", "line2": "2 34011  74.0150 313.1159 0036080  34.0795 326.2666 14.41810013880488"}}, "geometry": {"type": "Point", "coordinates": [130.76031364493966, -6.797619975450915]}}]}